[
    {
        "Altitude(m)": 554256.0699656571,
        "Argument of Periapsis(deg)": 0.0,
        "Eccentricity": 0.0,
        "Inclination(deg)": 53.0,
        "Latitude(deg)": -0.07944070075053253,
        "Longitude(deg)": -79.90982235733797,
        "Mean Anomaly(deg)": -180.00000000000003,
        "RAAN(deg)": 200.0,
        "Satellite Name": "Starlink Shell 1 891",
        "Satellite Number": 891,
        "Semi-Major Axis(m)": 6931778.249405717,
        "Time(s)": 0
    },
    {
        "Altitude(m)": 554323.2818711845,
        "Argument of Periapsis(deg)": 0.00034857847951123687,
        "Eccentricity": 0.0,
        "Inclination(deg)": 53.0,
        "Latitude(deg)": -0.5833683172116534,
        "Longitude(deg)": -79.5744449854605,
        "Mean Anomaly(deg)": -179.37316879644328,
        "RAAN(deg)": 199.99948122992257,
        "Satellite Name": "Starlink Shell 1 891",
        "Satellite Number": 891,
        "Semi-Major Axis(m)": 6931778.249405717,
        "Time(s)": 10
    },
    {
        "Altitude(m)": 554393.2797882506,
        "Argument of Periapsis(deg)": 0.0006971569590224737,
        "Eccentricity": 0.0,
        "Inclination(deg)": 53.0,
        "Latitude(deg)": -1.0872598689465567,
        "Longitude(deg)": -79.23900795219029,
        "Mean Anomaly(deg)": -178.74633759288656,
        "RAAN(deg)": 199.99896245984505,
        "Satellite Name": "Starlink Shell 1 891",
        "Satellite Number": 891,
        "Semi-Major Axis(m)": 6931778.249405717,
        "Time(s)": 20
    },
    {
        "Altitude(m)": 554466.0534808483,
        "Argument of Periapsis(deg)": 0.0010457354385337105,
        "Eccentricity": 0.0,
        "Inclination(deg)": 53.0,
        "Latitude(deg)": -1.591092453812682,
        "Longitude(deg)": -78.90345370898237,
        "Mean Anomaly(deg)": -178.11950638932984,
        "RAAN(deg)": 199.9984436897676,
        "Satellite Name": "Starlink Shell 1 891",
        "Satellite Number": 891,
        "Semi-Major Axis(m)": 6931778.249405717,
        "Time(s)": 30
    },
    {
        "Altitude(m)": 554541.5913622337,
        "Argument of Periapsis(deg)": 0.0013943139180449475,
        "Eccentricity": 0.0,
        "Inclination(deg)": 53.0,
        "Latitude(deg)": -2.0948431482477967,
        "Longitude(deg)": -78.56772415425387,
        "Mean Anomaly(deg)": -177.49267518577315,
        "RAAN(deg)": 199.9979249196901,
        "Satellite Name": "Starlink Shell 1 891",
        "Satellite Number": 891,
        "Semi-Major Axis(m)": 6931778.249405717,
        "Time(s)": 40
    },
    {
        "Altitude(m)": 554619.880497945,
        "Argument of Periapsis(deg)": 0.0017428923975561844,
        "Eccentricity": 0.0,
        "Inclination(deg)": 53.0,
        "Latitude(deg)": -2.598488995560042,
        "Longitude(deg)": -78.23176161672967,
        "Mean Anomaly(deg)": -176.86584398221643,
        "RAAN(deg)": 199.9974061496126,
        "Satellite Name": "Starlink Shell 1 891",
        "Satellite Number": 891,
        "Semi-Major Axis(m)": 6931778.249405717,
        "Time(s)": 50
    },
    {
        "Altitude(m)": 554700.90660952,
        "Argument of Periapsis(deg)": 0.002091470877067421,
        "Eccentricity": 0.0,
        "Inclination(deg)": 53.0,
        "Latitude(deg)": -3.1020069941844417,
        "Longitude(deg)": -77.89550832589597,
        "Mean Anomaly(deg)": -176.23901277865968,
        "RAAN(deg)": 199.99688737953517,
        "Satellite Name": "Starlink Shell 1 891",
        "Satellite Number": 891,
        "Semi-Major Axis(m)": 6931778.249405717,
        "Time(s)": 60
    },
    {
        "Altitude(m)": 554784.6540788569,
        "Argument of Periapsis(deg)": 0.0024400493565786582,
        "Eccentricity": 0.0,
        "Inclination(deg)": 53.0,
        "Latitude(deg)": -3.60537408589495,
        "Longitude(deg)": -77.55890588242791,
        "Mean Anomaly(deg)": -175.61218157510302,
        "RAAN(deg)": 199.9963686094577,
        "Satellite Name": "Starlink Shell 1 891",
        "Satellite Number": 891,
        "Semi-Major Axis(m)": 6931778.249405717,
        "Time(s)": 70
    },
    {
        "Altitude(m)": 554871.1059532686,
        "Argument of Periapsis(deg)": 0.002788627836089895,
        "Eccentricity": 0.0,
        "Inclination(deg)": 53.0,
        "Latitude(deg)": -4.108567143961559,
        "Longitude(deg)": -77.22189624145688,
        "Mean Anomaly(deg)": -174.98535037154628,
        "RAAN(deg)": 199.9958498393802,
        "Satellite Name": "Starlink Shell 1 891",
        "Satellite Number": 891,
        "Semi-Major Axis(m)": 6931778.249405717,
        "Time(s)": 80
    },
    {
        "Altitude(m)": 554960.243951198,
        "Argument of Periapsis(deg)": 0.0031372063156011316,
        "Eccentricity": 0.0,
        "Inclination(deg)": 53.0,
        "Latitude(deg)": -4.611562961238995,
        "Longitude(deg)": -76.88442118292524,
        "Mean Anomaly(deg)": -174.35851916798958,
        "RAAN(deg)": 199.99533106930275,
        "Satellite Name": "Starlink Shell 1 891",
        "Satellite Number": 891,
        "Semi-Major Axis(m)": 6931778.249405717,
        "Time(s)": 90
    },
    {
        "Altitude(m)": 555052.0484685824,
        "Argument of Periapsis(deg)": 0.0034857847951123688,
        "Eccentricity": 0.0,
        "Inclination(deg)": 53.0,
        "Latitude(deg)": -5.1143382381781874,
        "Longitude(deg)": -76.54642178189282,
        "Mean Anomaly(deg)": -173.73168796443284,
        "RAAN(deg)": 199.9948122992253,
        "Satellite Name": "Starlink Shell 1 891",
        "Satellite Number": 891,
        "Semi-Major Axis(m)": 6931778.249405717,
        "Time(s)": 100
    },
    {
        "Altitude(m)": 555146.498585914,
        "Argument of Periapsis(deg)": 0.003834363274623606,
        "Eccentricity": 0.0,
        "Inclination(deg)": 53.0,
        "Latitude(deg)": -5.616869570747375,
        "Longitude(deg)": -76.20783939166533,
        "Mean Anomaly(deg)": -173.10485676087617,
        "RAAN(deg)": 199.9942935291478,
        "Satellite Name": "Starlink Shell 1 891",
        "Satellite Number": 891,
        "Semi-Major Axis(m)": 6931778.249405717,
        "Time(s)": 110
    },
    {
        "Altitude(m)": 555243.572075935,
        "Argument of Periapsis(deg)": 0.004182941754134842,
        "Eccentricity": 0.0,
        "Inclination(deg)": 53.0,
        "Latitude(deg)": -6.1191334382524705,
        "Longitude(deg)": -75.86861511398887,
        "Mean Anomaly(deg)": -172.4780255573194,
        "RAAN(deg)": 199.99377475907033,
        "Satellite Name": "Starlink Shell 1 891",
        "Satellite Number": 891,
        "Semi-Major Axis(m)": 6931778.249405717,
        "Time(s)": 120
    },
    {
        "Altitude(m)": 555343.2454119726,
        "Argument of Periapsis(deg)": 0.004531520233646079,
        "Eccentricity": 0.0,
        "Inclination(deg)": 53.0,
        "Latitude(deg)": -6.621106191043776,
        "Longitude(deg)": -75.52868926918136,
        "Mean Anomaly(deg)": -171.8511943537627,
        "RAAN(deg)": 199.9932559889929,
        "Satellite Name": "Starlink Shell 1 891",
        "Satellite Number": 891,
        "Semi-Major Axis(m)": 6931778.249405717,
        "Time(s)": 130
    },
    {
        "Altitude(m)": 555445.4937769646,
        "Argument of Periapsis(deg)": 0.0048800987131573164,
        "Eccentricity": 0.0,
        "Inclination(deg)": 53.0,
        "Latitude(deg)": -7.122764038099893,
        "Longitude(deg)": -75.18800237906716,
        "Mean Anomaly(deg)": -171.224363150206,
        "RAAN(deg)": 199.99273721891538,
        "Satellite Name": "Starlink Shell 1 891",
        "Satellite Number": 891,
        "Semi-Major Axis(m)": 6931778.249405717,
        "Time(s)": 140
    },
    {
        "Altitude(m)": 555550.2910730843,
        "Argument of Periapsis(deg)": 0.005228677192668553,
        "Eccentricity": 0.0,
        "Inclination(deg)": 53.0,
        "Latitude(deg)": -7.624083034474703,
        "Longitude(deg)": -74.84649463696513,
        "Mean Anomaly(deg)": -170.59753194664924,
        "RAAN(deg)": 199.9922184488379,
        "Satellite Name": "Starlink Shell 1 891",
        "Satellite Number": 891,
        "Semi-Major Axis(m)": 6931778.249405717,
        "Time(s)": 150
    },
    {
        "Altitude(m)": 555657.6099320417,
        "Argument of Periapsis(deg)": 0.00557725567217979,
        "Eccentricity": 0.0,
        "Inclination(deg)": 53.0,
        "Latitude(deg)": -8.125039068596921,
        "Longitude(deg)": -74.5041053775995,
        "Mean Anomaly(deg)": -169.97070074309258,
        "RAAN(deg)": 199.99169967876043,
        "Satellite Name": "Starlink Shell 1 891",
        "Satellite Number": 891,
        "Semi-Major Axis(m)": 6931778.249405717,
        "Time(s)": 160
    },
    {
        "Altitude(m)": 555767.421726003,
        "Argument of Periapsis(deg)": 0.0059258341516910265,
        "Eccentricity": 0.0,
        "Inclination(deg)": 53.0,
        "Latitude(deg)": -8.625607849411569,
        "Longitude(deg)": -74.16077405980343,
        "Mean Anomaly(deg)": -169.34386953953583,
        "RAAN(deg)": 199.99118090868294,
        "Satellite Name": "Starlink Shell 1 891",
        "Satellite Number": 891,
        "Semi-Major Axis(m)": 6931778.249405717,
        "Time(s)": 170
    },
    {
        "Altitude(m)": 555879.6965791284,
        "Argument of Periapsis(deg)": 0.006274412631202263,
        "Eccentricity": 0.0,
        "Inclination(deg)": 53.0,
        "Latitude(deg)": -9.125764893348896,
        "Longitude(deg)": -73.81643973626755,
        "Mean Anomaly(deg)": -168.71703833597917,
        "RAAN(deg)": 199.9906621386055,
        "Satellite Name": "Starlink Shell 1 891",
        "Satellite Number": 891,
        "Semi-Major Axis(m)": 6931778.249405717,
        "Time(s)": 180
    }
]